CTC1_L_00441001-01
1 86101U 23294SK  26037.47806713  .00000000  00000+0  00000-0 0  9999
2 86101  50.0000   0.0000 0000000   0.0000   0.0000 12.41559219    13
CTC1_L_00441001-02
1 86102U 26928RU  26037.47806713  .00000000  00000+0  00000-0 0  9997
2 86102  50.0000   0.0000 0000000   0.0000  90.0000 12.41559219    13
CTC1_L_00441001-03
1 86103U 26904UU  26037.47806713  .00000000  00000+0  00000-0 0  9992
2 86103  50.0000   0.0000 0000000   0.0000 180.0000 12.41559219    14
CTC1_L_00441001-04
1 86104U 24898WQ  26037.47806713  .00000000  00000+0  00000-0 0  9993
2 86104  50.0000   0.0000 0000000   0.0000 270.0000 12.41559219    15
CTC1_L_00441002-01
1 86105U 25659HG  26037.47806713  .00000000  00000+0  00000-0 0  9990
2 86105  50.0000  12.0000 0000000   0.0000  12.0000 12.41559219    13
CTC1_L_00441002-02
1 86106U 24770VC  26037.47806713  .00000000  00000+0  00000-0 0  9994
2 86106  50.0000  12.0000 0000000   0.0000 102.0000 12.41559219    14
CTC1_L_00441002-03
1 86107U 24052OH  26037.47806713  .00000000  00000+0  00000-0 0  9998
2 86107  50.0000  12.0000 0000000   0.0000 192.0000 12.41559219    14
CTC1_L_00441002-04
1 86108U 23042NL  26037.47806713  .00000000  00000+0  00000-0 0  9997
2 86108  50.0000  12.0000 0000000   0.0000 282.0000 12.41559219    15
CTC1_L_00441003-01
1 86109U 22165UF  26037.47806713  .00000000  00000+0  00000-0 0  9993
2 86109  50.0000  24.0000 0000000   0.0000  24.0000 12.41559219    13
CTC1_L_00441003-02
1 86110U 26983WQ  26037.47806713  .00000000  00000+0  00000-0 0  9997
2 86110  50.0000  24.0000 0000000   0.0000 114.0000 12.41559219    15
CTC1_L_00441003-03
1 86111U 24822LQ  26037.47806713  .00000000  00000+0  00000-0 0  9998
2 86111  50.0000  24.0000 0000000   0.0000 204.0000 12.41559219    16
CTC1_L_00441003-04
1 86112U 26471KK  26037.47806713  .00000000  00000+0  00000-0 0  9991
2 86112  50.0000  24.0000 0000000   0.0000 294.0000 12.41559219    16
CTC1_L_00441004-01
1 86113U 26897VF  26037.47806713  .00000000  00000+0  00000-0 0  9994
2 86113  50.0000  36.0000 0000000   0.0000  36.0000 12.41559219    14
CTC1_L_00441004-02
1 86114U 24900FB  26037.47806713  .00000000  00000+0  00000-0 0  9998
2 86114  50.0000  36.0000 0000000   0.0000 126.0000 12.41559219    15
CTC1_L_00441004-03
1 86115U 25234CK  26037.47806713  .00000000  00000+0  00000-0 0  9990
2 86115  50.0000  36.0000 0000000   0.0000 216.0000 12.41559219    16
CTC1_L_00441004-04
1 86116U 26301WJ  26037.47806713  .00000000  00000+0  00000-0 0  9997
2 86116  50.0000  36.0000 0000000   0.0000 306.0000 12.41559219    17
CTC1_L_00441005-01
1 86117U 26393QY  26037.47806713  .00000000  00000+0  00000-0 0  9999
2 86117  50.0000  48.0000 0000000   0.0000  48.0000 12.41559219    14
CTC1_L_00441005-02
1 86118U 26899HU  26037.47806713  .00000000  00000+0  00000-0 0  9991
2 86118  50.0000  48.0000 0000000   0.0000 138.0000 12.41559219    15
CTC1_L_00441005-03
1 86119U 24831CK  26037.47806713  .00000000  00000+0  00000-0 0  9996
2 86119  50.0000  48.0000 0000000   0.0000 228.0000 12.41559219    16
CTC1_L_00441005-04
1 86120U 23508LL  26037.47806713  .00000000  00000+0  00000-0 0  9998
2 86120  50.0000  48.0000 0000000   0.0000 318.0000 12.41559219    18
CTC1_L_00441006-01
1 86121U 22844Q   26037.47806713  .00000000  00000+0  00000-0 0  9991
2 86121  50.0000  60.0000 0000000   0.0000  60.0000 12.41559219    17
CTC1_L_00441006-02
1 86122U 26302X   26037.47806713  .00000000  00000+0  00000-0 0  9995
2 86122  50.0000  60.0000 0000000   0.0000 150.0000 12.41559219    18
CTC1_L_00441006-03
1 86123U 24438ID  26037.47806713  .00000000  00000+0  00000-0 0  9994
2 86123  50.0000  60.0000 0000000   0.0000 240.0000 12.41559219    19
CTC1_L_00441006-04
1 86124U 26791VT  26037.47806713  .00000000  00000+0  00000-0 0  9999
2 86124  50.0000  60.0000 0000000   0.0000 330.0000 12.41559219    10
CTC1_L_00441007-01
1 86125U 25276GV  26037.47806713  .00000000  00000+0  00000-0 0  9997
2 86125  50.0000  72.0000 0000000   0.0000  72.0000 12.41559219    17
CTC1_L_00441007-02
1 86126U 23799VP  26037.47806713  .00000000  00000+0  00000-0 0  9996
2 86126  50.0000  72.0000 0000000   0.0000 162.0000 12.41559219    18
CTC1_L_00441007-03
1 86127U 24240KE  26037.47806713  .00000000  00000+0  00000-0 0  9999
2 86127  50.0000  72.0000 0000000   0.0000 252.0000 12.41559219    19
CTC1_L_00441007-04
1 86128U 22493BN  26037.47806713  .00000000  00000+0  00000-0 0  9998
2 86128  50.0000  72.0000 0000000   0.0000 342.0000 12.41559219    10
CTC1_L_00441008-01
1 86129U 24662EQ  26037.47806713  .00000000  00000+0  00000-0 0  9999
2 86129  50.0000  84.0000 0000000   0.0000  84.0000 12.41559219    17
CTC1_L_00441008-02
1 86130U 23396JJ  26037.47806713  .00000000  00000+0  00000-0 0  9994
2 86130  50.0000  84.0000 0000000   0.0000 174.0000 12.41559219    19
CTC1_L_00441008-03
1 86131U 22963YB  26037.47806713  .00000000  00000+0  00000-0 0  9994
2 86131  50.0000  84.0000 0000000   0.0000 264.0000 12.41559219    10
CTC1_L_00441008-04
1 86132U 26268JW  26037.47806713  .00000000  00000+0  00000-0 0  9997
2 86132  50.0000  84.0000 0000000   0.0000 354.0000 12.41559219    11
CTC1_L_00441009-01
1 86133U 22642EC  26037.47806713  .00000000  00000+0  00000-0 0  9990
2 86133  50.0000  96.0000 0000000   0.0000  96.0000 12.41559219    18
CTC1_L_00441009-02
1 86134U 23586UJ  26037.47806713  .00000000  00000+0  00000-0 0  9999
2 86134  50.0000  96.0000 0000000   0.0000 186.0000 12.41559219    19
CTC1_L_00441009-03
1 86135U 26431GE  26037.47806713  .00000000  00000+0  00000-0 0  9992
2 86135  50.0000  96.0000 0000000   0.0000 276.0000 12.41559219    10
CTC1_L_00441009-04
1 86136U 25404OB  26037.47806713  .00000000  00000+0  00000-0 0  9992
2 86136  50.0000  96.0000 0000000   0.0000   6.0000 12.41559219    12
CTC1_L_00441010-01
1 86137U 25407TM  26037.47806713  .00000000  00000+0  00000-0 0  9996
2 86137  50.0000 108.0000 0000000   0.0000 108.0000 12.41559219    10
CTC1_L_00441010-02
1 86138U 23143AT  26037.47806713  .00000000  00000+0  00000-0 0  9992
2 86138  50.0000 108.0000 0000000   0.0000 198.0000 12.41559219    10
CTC1_L_00441010-03
1 86139U 24249SE  26037.47806713  .00000000  00000+0  00000-0 0  9991
2 86139  50.0000 108.0000 0000000   0.0000 288.0000 12.41559219    11
CTC1_L_00441010-04
1 86140U 22557QP  26037.47806713  .00000000  00000+0  00000-0 0  9993
2 86140  50.0000 108.0000 0000000   0.0000  18.0000 12.41559219    14
CTC1_L_00441011-01
1 86141U 23052GS  26037.47806713  .00000000  00000+0  00000-0 0  9995
2 86141  50.0000 120.0000 0000000   0.0000 120.0000 12.41559219    13
CTC1_L_00441011-02
1 86142U 22986OR  26037.47806713  .00000000  00000+0  00000-0 0  9991
2 86142  50.0000 120.0000 0000000   0.0000 210.0000 12.41559219    14
CTC1_L_00441011-03
1 86143U 22193CT  26037.47806713  .00000000  00000+0  00000-0 0  9992
2 86143  50.0000 120.0000 0000000   0.0000 300.0000 12.41559219    15
CTC1_L_00441011-04
1 86144U 25916UD  26037.47806713  .00000000  00000+0  00000-0 0  9999
2 86144  50.0000 120.0000 0000000   0.0000  30.0000 12.41559219    16
CTC1_L_00441012-01
1 86145U 26680WK  26037.47806713  .00000000  00000+0  00000-0 0  9999
2 86145  50.0000 132.0000 0000000   0.0000 132.0000 12.41559219    13
CTC1_L_00441012-02
1 86146U 22767MC  26037.47806713  .00000000  00000+0  00000-0 0  9992
2 86146  50.0000 132.0000 0000000   0.0000 222.0000 12.41559219    14
CTC1_L_00441012-03
1 86147U 26782MU  26037.47806713  .00000000  00000+0  00000-0 0  9994
2 86147  50.0000 132.0000 0000000   0.0000 312.0000 12.41559219    15
CTC1_L_00441012-04
1 86148U 22431PA  26037.47806713  .00000000  00000+0  00000-0 0  9992
2 86148  50.0000 132.0000 0000000   0.0000  42.0000 12.41559219    16
CTC1_L_00441013-01
1 86149U 25819MX  26037.47806713  .00000000  00000+0  00000-0 0  9996
2 86149  50.0000 144.0000 0000000   0.0000 144.0000 12.41559219    13
CTC1_L_00441013-02
1 86150U 24651GP  26037.47806713  .00000000  00000+0  00000-0 0  9991
2 86150  50.0000 144.0000 0000000   0.0000 234.0000 12.41559219    15
CTC1_L_00441013-03
1 86151U 24931MA  26037.47806713  .00000000  00000+0  00000-0 0  9993
2 86151  50.0000 144.0000 0000000   0.0000 324.0000 12.41559219    16
CTC1_L_00441013-04
1 86152U 22731FB  26037.47806713  .00000000  00000+0  00000-0 0  9990
2 86152  50.0000 144.0000 0000000   0.0000  54.0000 12.41559219    17
CTC1_L_00441014-01
1 86153U 24762NQ  26037.47806713  .00000000  00000+0  00000-0 0  9997
2 86153  50.0000 156.0000 0000000   0.0000 156.0000 12.41559219    14
CTC1_L_00441014-02
1 86154U 25697HA  26037.47806713  .00000000  00000+0  00000-0 0  9996
2 86154  50.0000 156.0000 0000000   0.0000 246.0000 12.41559219    15
CTC1_L_00441014-03
1 86155U 25986EV  26037.47806713  .00000000  00000+0  00000-0 0  9998
2 86155  50.0000 156.0000 0000000   0.0000 336.0000 12.41559219    16
CTC1_L_00441014-04
1 86156U 22698IY  26037.47806713  .00000000  00000+0  00000-0 0  9996
2 86156  50.0000 156.0000 0000000   0.0000  66.0000 12.41559219    17
CTC1_L_00441015-01
1 86157U 25568TS  26037.47806713  .00000000  00000+0  00000-0 0  9996
2 86157  50.0000 168.0000 0000000   0.0000 168.0000 12.41559219    14
CTC1_L_00441015-02
1 86158U 24815LN  26037.47806713  .00000000  00000+0  00000-0 0  9991
2 86158  50.0000 168.0000 0000000   0.0000 258.0000 12.41559219    15
CTC1_L_00441015-03
1 86159U 22780YC  26037.47806713  .00000000  00000+0  00000-0 0  9991
2 86159  50.0000 168.0000 0000000   0.0000 348.0000 12.41559219    16
CTC1_L_00441015-04
1 86160U 25651SA  26037.47806713  .00000000  00000+0  00000-0 0  9993
2 86160  50.0000 168.0000 0000000   0.0000  78.0000 12.41559219    18
CTC1_L_00441016-01
1 86161U 25368UM  26037.47806713  .00000000  00000+0  00000-0 0  9999
2 86161  50.0000 180.0000 0000000   0.0000 180.0000 12.41559219    17
CTC1_L_00441016-02
1 86162U 22082WM  26037.47806713  .00000000  00000+0  00000-0 0  9990
2 86162  50.0000 180.0000 0000000   0.0000 270.0000 12.41559219    18
